start=new Date('2021-11-20T00:00:00.000Z').valueOf();
sats=[{"BSTAR":"0.00003308200000","EPHEMERIS_TYPE":"0","LAUNCH_DATE":"2021-02-04","MEAN_ANOMALY":"290.6642","COUNTRY_CODE":"US","FILE":"3219209","REV_AT_EPOCH":"4411","ARG_OF_PERICENTER":"69.4543","OBJECT_ID":"2021-009BL","INCLINATION":"53.0545","TLE_LINE1":"1 47606U 21009BL  21323.43647920  .00000211  00000-0  33082-4 0  9995","SITE":"AFETR","CENTER_NAME":"EARTH","TIME_SYSTEM":"UTC","ELEMENT_SET_NO":"999","NORAD_CAT_ID":"47606","SEMIMAJOR_AXIS":"6925.336","MEAN_MOTION_DOT":"0.00000211","RA_OF_ASC_NODE":"225.2320","OBJECT_NAME":"STARLINK-2024","CLASSIFICATION_TYPE":"U","APOAPSIS":"548.464","ECCENTRICITY":"0.00018230","GP_ID":"190074894","PERIOD":"95.592","EPOCH":"2021-11-19T10:28:31.802880","MEAN_MOTION_DDOT":"0.0000000000000","MEAN_ELEMENT_THEORY":"SGP4","MEAN_MOTION":"15.06404028","REF_FRAME":"TEME","OBJECT_TYPE":"PAYLOAD","PERIAPSIS":"545.939","TLE_LINE2":"2 47606  53.0545 225.2320 0001823  69.4543 290.6642 15.06404028 44117","DECAY_DATE":null,"RCS_SIZE":"LARGE"},{"SEMIMAJOR_AXIS":"6925.349","NORAD_CAT_ID":"47607","ELEMENT_SET_NO":"999","TIME_SYSTEM":"UTC","OBJECT_NAME":"STARLINK-2025","APOAPSIS":"548.551","CLASSIFICATION_TYPE":"U","RA_OF_ASC_NODE":"226.5441","MEAN_MOTION_DOT":"0.00000207","REV_AT_EPOCH":"4406","FILE":"3219209","OBJECT_ID":"2021-009BM","ARG_OF_PERICENTER":"69.0608","LAUNCH_DATE":"2021-02-04","COUNTRY_CODE":"US","MEAN_ANOMALY":"291.0588","BSTAR":"0.00003277700000","EPHEMERIS_TYPE":"0","CENTER_NAME":"EARTH","INCLINATION":"53.0527","SITE":"AFETR","TLE_LINE1":"1 47607U 21009BM  21323.14897834  .00000207  00000-0  32777-4 0  9990","PERIAPSIS":"545.877","TLE_LINE2":"2 47607  53.0527 226.5441 0001931  69.0608 291.0588 15.06399925 44061","RCS_SIZE":"LARGE","DECAY_DATE":null,"ECCENTRICITY":"0.00019310","MEAN_MOTION_DDOT":"0.0000000000000","EPOCH":"2021-11-19T03:34:31.728576","OBJECT_TYPE":"PAYLOAD","REF_FRAME":"TEME","MEAN_MOTION":"15.06399925","MEAN_ELEMENT_THEORY":"SGP4","GP_ID":"190075646","PERIOD":"95.592"},{"RCS_SIZE":"LARGE","DECAY_DATE":null,"PERIAPSIS":"545.938","TLE_LINE2":"2 47620  53.0543 286.4703 0001894  56.0176 304.0993 15.06388287 43113","MEAN_MOTION_DDOT":"0.0000000000000","EPOCH":"2021-11-19T03:58:25.337856","OBJECT_TYPE":"PAYLOAD","MEAN_MOTION":"15.06388287","REF_FRAME":"TEME","MEAN_ELEMENT_THEORY":"SGP4","GP_ID":"190074895","PERIOD":"95.593","ECCENTRICITY":"0.00018940","OBJECT_NAME":"STARLINK-1528","APOAPSIS":"548.561","CLASSIFICATION_TYPE":"U","RA_OF_ASC_NODE":"286.4703","MEAN_MOTION_DOT":"-0.00001112","SEMIMAJOR_AXIS":"6925.384","NORAD_CAT_ID":"47620","ELEMENT_SET_NO":"999","TIME_SYSTEM":"UTC","CENTER_NAME":"EARTH","INCLINATION":"53.0543","SITE":"AFETR","TLE_LINE1":"1 47620U 21012A   21323.16557104 -.00001112  00000-0 -55762-4 0  9991","REV_AT_EPOCH":"4311","FILE":"3219209","OBJECT_ID":"2021-012A","ARG_OF_PERICENTER":"56.0176","COUNTRY_CODE":"US","LAUNCH_DATE":"2021-02-16","MEAN_ANOMALY":"304.0993","BSTAR":"-0.00005576200000","EPHEMERIS_TYPE":"0"},{"DECAY_DATE":null,"RCS_SIZE":"LARGE","PERIAPSIS":"546.079","TLE_LINE2":"2 47621  53.0558 285.8997 0001642  63.2650 296.8507 15.06399273 43145","PERIOD":"95.592","GP_ID":"190075647","MEAN_MOTION":"15.06399273","MEAN_ELEMENT_THEORY":"SGP4","REF_FRAME":"TEME","OBJECT_TYPE":"PAYLOAD","EPOCH":"2021-11-19T06:58:52.813056","MEAN_MOTION_DDOT":"0.0000000000000","ECCENTRICITY":"0.00016420","MEAN_MOTION_DOT":"0.00000022","RA_OF_ASC_NODE":"285.8997","APOAPSIS":"548.353","CLASSIFICATION_TYPE":"U","OBJECT_NAME":"STARLINK-1609","TIME_SYSTEM":"UTC","ELEMENT_SET_NO":"999","SEMIMAJOR_AXIS":"6925.351","NORAD_CAT_ID":"47621","TLE_LINE1":"1 47621U 21012B   21323.29088904  .00000022  00000-0  20362-4 0  9998","SITE":"AFETR","INCLINATION":"53.0558","CENTER_NAME":"EARTH","BSTAR":"0.00002036200000","EPHEMERIS_TYPE":"0","COUNTRY_CODE":"US","LAUNCH_DATE":"2021-02-16","MEAN_ANOMALY":"296.8507","ARG_OF_PERICENTER":"63.2650","OBJECT_ID":"2021-012B","FILE":"3219209","REV_AT_EPOCH":"4314"},{"RCS_SIZE":"LARGE","DECAY_DATE":null,"TLE_LINE2":"2 47622  53.0554 285.9077 0001947  57.7218 302.3960 15.06399593 43138","PERIAPSIS":"545.866","MEAN_MOTION_DDOT":"0.0000000000000","EPOCH":"2021-11-19T06:53:34.003104","OBJECT_TYPE":"PAYLOAD","MEAN_ELEMENT_THEORY":"SGP4","MEAN_MOTION":"15.06399593","REF_FRAME":"TEME","GP_ID":"190075398","PERIOD":"95.592","ECCENTRICITY":"0.00019470","OBJECT_NAME":"STARLINK-1645","CLASSIFICATION_TYPE":"U","APOAPSIS":"548.563","RA_OF_ASC_NODE":"285.9077","MEAN_MOTION_DOT":"-0.00000176","SEMIMAJOR_AXIS":"6925.350","NORAD_CAT_ID":"47622","ELEMENT_SET_NO":"999","TIME_SYSTEM":"UTC","CENTER_NAME":"EARTH","INCLINATION":"53.0554","SITE":"AFETR","TLE_LINE1":"1 47622U 21012C   21323.28719911 -.00000176  00000-0  71137-5 0  9995","REV_AT_EPOCH":"4313","FILE":"3219209","OBJECT_ID":"2021-012C","ARG_OF_PERICENTER":"57.7218","MEAN_ANOMALY":"302.3960","LAUNCH_DATE":"2021-02-16","COUNTRY_CODE":"US","BSTAR":"0.00000711370000","EPHEMERIS_TYPE":"0"},{"TLE_LINE2":"2 47623  53.0553 220.2624 0001648  79.5404 280.5771 15.06389650 44079","PERIAPSIS":"546.104","RCS_SIZE":"LARGE","DECAY_DATE":null,"ECCENTRICITY":"0.00016480","EPOCH":"2021-11-19T10:21:14.955840","MEAN_MOTION_DDOT":"0.0000000000000","REF_FRAME":"TEME","MEAN_MOTION":"15.06389650","MEAN_ELEMENT_THEORY":"SGP4","OBJECT_TYPE":"PAYLOAD","GP_ID":"190074145","PERIOD":"95.593","NORAD_CAT_ID":"47623","SEMIMAJOR_AXIS":"6925.380","TIME_SYSTEM":"UTC","ELEMENT_SET_NO":"999","OBJECT_NAME":"STARLINK-1655","CLASSIFICATION_TYPE":"U","APOAPSIS":"548.387","MEAN_MOTION_DOT":"-0.00001726","RA_OF_ASC_NODE":"220.2624","FILE":"3219209","REV_AT_EPOCH":"4407","ARG_OF_PERICENTER":"79.5404","OBJECT_ID":"2021-012D","BSTAR":"-0.00009704600000","EPHEMERIS_TYPE":"0","LAUNCH_DATE":"2021-02-16","COUNTRY_CODE":"US","MEAN_ANOMALY":"280.5771","CENTER_NAME":"EARTH","INCLINATION":"53.0553","TLE_LINE1":"1 47623U 21012D   21323.43142310 -.00001726  00000-0 -97046-4 0  9995","SITE":"AFETR"},{"CENTER_NAME":"EARTH","SITE":"AFETR","TLE_LINE1":"1 47624U 21012E   21323.35908373 -.00000088  00000-0  13004-4 0  9997","INCLINATION":"53.0556","OBJECT_ID":"2021-012E","ARG_OF_PERICENTER":"69.2809","REV_AT_EPOCH":"4344","FILE":"3219209","LAUNCH_DATE":"2021-02-16","COUNTRY_CODE":"US","MEAN_ANOMALY":"290.8375","EPHEMERIS_TYPE":"0","BSTAR":"0.00001300400000","APOAPSIS":"548.520","CLASSIFICATION_TYPE":"U","OBJECT_NAME":"STARLINK-1669","RA_OF_ASC_NODE":"265.5901","MEAN_MOTION_DOT":"-0.00000088","SEMIMAJOR_AXIS":"6925.391","NORAD_CAT_ID":"47624","ELEMENT_SET_NO":"999","TIME_SYSTEM":"UTC","OBJECT_TYPE":"PAYLOAD","MEAN_MOTION":"15.06386032","REF_FRAME":"TEME","MEAN_ELEMENT_THEORY":"SGP4","MEAN_MOTION_DDOT":"0.0000000000000","EPOCH":"2021-11-19T08:37:04.834272","PERIOD":"95.593","GP_ID":"190074396","ECCENTRICITY":"0.00018250","RCS_SIZE":"LARGE","DECAY_DATE":null,"TLE_LINE2":"2 47624  53.0556 265.5901 0001825  69.2809 290.8375 15.06386032 43440","PERIAPSIS":"545.992"},{"LAUNCH_DATE":"2021-02-16","COUNTRY_CODE":"US","MEAN_ANOMALY":"293.6430","EPHEMERIS_TYPE":"0","BSTAR":"-0.00000104590000","OBJECT_ID":"2021-012F","ARG_OF_PERICENTER":"66.4761","REV_AT_EPOCH":"4314","FILE":"3219209","SITE":"AFETR","TLE_LINE1":"1 47625U 21012F   21323.36092800 -.00000297  00000-0 -10459-5 0  9993","INCLINATION":"53.0558","CENTER_NAME":"EARTH","ELEMENT_SET_NO":"999","TIME_SYSTEM":"UTC","NORAD_CAT_ID":"47625","SEMIMAJOR_AXIS":"6925.380","RA_OF_ASC_NODE":"285.5839","MEAN_MOTION_DOT":"-0.00000297","CLASSIFICATION_TYPE":"U","APOAPSIS":"548.577","OBJECT_NAME":"STARLINK-1704","ECCENTRICITY":"0.00019240","PERIOD":"95.593","GP_ID":"190075148","OBJECT_TYPE":"PAYLOAD","MEAN_ELEMENT_THEORY":"SGP4","MEAN_MOTION":"15.06389831","REF_FRAME":"TEME","MEAN_MOTION_DDOT":"0.0000000000000","EPOCH":"2021-11-19T08:39:44.179200","PERIAPSIS":"545.912","TLE_LINE2":"2 47625  53.0558 285.5839 0001924  66.4761 293.6430 15.06389831 43141","DECAY_DATE":null,"RCS_SIZE":"LARGE"},{"ARG_OF_PERICENTER":"73.3302","OBJECT_ID":"2021-012G","FILE":"3219209","REV_AT_EPOCH":"4313","BSTAR":"-0.00001075300000","EPHEMERIS_TYPE":"0","LAUNCH_DATE":"2021-02-16","COUNTRY_CODE":"US","MEAN_ANOMALY":"286.7868","CENTER_NAME":"EARTH","TLE_LINE1":"1 47626U 21012G   21323.27982776 -.00000442  00000-0 -10753-4 0  9992","SITE":"AFETR","INCLINATION":"53.0553","NORAD_CAT_ID":"47626","SEMIMAJOR_AXIS":"6925.352","TIME_SYSTEM":"UTC","ELEMENT_SET_NO":"999","APOAPSIS":"548.357","CLASSIFICATION_TYPE":"U","OBJECT_NAME":"STARLINK-1761","MEAN_MOTION_DOT":"-0.00000442","RA_OF_ASC_NODE":"285.9372","ECCENTRICITY":"0.00016460","MEAN_ELEMENT_THEORY":"SGP4","MEAN_MOTION":"15.06398912","REF_FRAME":"TEME","OBJECT_TYPE":"PAYLOAD","EPOCH":"2021-11-19T06:42:57.118464","MEAN_MOTION_DDOT":"0.0000000000000","PERIOD":"95.592","GP_ID":"190075898","TLE_LINE2":"2 47626  53.0553 285.9372 0001646  73.3302 286.7868 15.06398912 43139","PERIAPSIS":"546.077","RCS_SIZE":"LARGE","DECAY_DATE":null},{"PERIOD":"95.594","GP_ID":"190074645","MEAN_MOTION":"15.06374303","MEAN_ELEMENT_THEORY":"SGP4","REF_FRAME":"TEME","OBJECT_TYPE":"PAYLOAD","EPOCH":"2021-11-19T14:00:01.000224","MEAN_MOTION_DDOT":"0.0000000000000","ECCENTRICITY":"0.00022530","DECAY_DATE":null,"RCS_SIZE":"MEDIUM","TLE_LINE2":"2 47627  53.0493 189.5886 0002253  66.9637  82.4827 15.06374303  3596","PERIAPSIS":"545.732","TLE_LINE1":"1 47627U 21012H   21323.58334491  .00028686  00000-0  19382-2 0  9995","SITE":"AFETR","INCLINATION":"53.0493","CENTER_NAME":"EARTH","BSTAR":"0.00193820000000","EPHEMERIS_TYPE":"0","LAUNCH_DATE":"2021-02-16","COUNTRY_CODE":"US","MEAN_ANOMALY":"82.4827","ARG_OF_PERICENTER":"66.9637","OBJECT_ID":"2021-012H","FILE":"3219209","REV_AT_EPOCH":"359","MEAN_MOTION_DOT":"0.00028686","RA_OF_ASC_NODE":"189.5886","CLASSIFICATION_TYPE":"U","APOAPSIS":"548.853","OBJECT_NAME":"STARLINK-1972","TIME_SYSTEM":"UTC","ELEMENT_SET_NO":"999","NORAD_CAT_ID":"47627","SEMIMAJOR_AXIS":"6925.427"}];
